STARLINK-37799          
1 69317U 26119X   26167.11715944  .00075712  00000+0  39199-3 0  9994
2 69317  97.2833 192.9349 0001229  79.5200 280.6206 15.80849711  2622
STARLINK-37802          
1 69318U 26119Y   26167.05222558 -.01183199  00000+0 -76186-2 0  9990
2 69318  97.2828 192.8705 0000842 117.2126 242.9227 15.78744219  3864
STARLINK-37803          
1 69319U 26119Z   26167.16668980 -.02534787  00000+0 -32293-1 0  9990
2 69319  97.2837 192.9437 0002347  96.1049  83.0990 15.62897974  3837
GUOWANG TEST OBJECT A   
1 69320U 26120A   26158.46264223  .00009002  00000+0  24096-3 0  9996
2 69320  54.9967  71.5399 0009599 294.3963  65.6063 15.38803685  1198
GUOWANG TEST OBJECT B   
1 69321U 26120B   26166.90442645  .00009403  00000+0  25218-3 0  9993
2 69321  54.9982  33.5103 0009972 326.8872  33.1531 15.38683890  2490
GUOWANG TEST OBJECT C   
1 69322U 26120C   26158.91389784  .00016153  00000+0  41736-3 0  9993
2 69322  54.9968  69.4792 0009850 309.3319  50.6835 15.39284097  1266
GUOWANG TEST OBJECT D   
1 69323U 26120D   26167.09537807  .00002141  00000+0  64627-4 0  9991
2 69323  54.9977  32.6091 0011275 341.3478  18.7136 15.39014223  2528
QIANFAN-163             
1 69325U 26121A   26167.12196926  .00000007  00000+0 -77033-5 0  9997
2 69325  89.0147 300.6229 0020040 192.1407 167.9269 13.59757996  2012
QIANFAN-164             
1 69326U 26121B   26162.41240743  .00000112  00000+0  13228-3 0  9992
2 69326  89.0157 301.0998 0019383 205.3125 154.7084 13.60355109  1373
SZ-22 MODULE            
1 69328U 25272C   26167.15162802  .00018063  00000+0  21907-3 0  9992
2 69328  41.4806 328.4034 0006361  77.9644 282.1907 15.60179448  3164
STARLINK-37733          
1 69329U 26122A   26167.15065553  .00092869  00000+0  47907-3 0  9997
2 69329  97.2834 196.5315 0000324  75.9673 284.1631 15.80878748  1990
STARLINK-37772          
1 69330U 26122B   26167.14541252  .00095990  00000+0  49511-3 0  9994
2 69330  97.2836 196.5388 0000906  65.0397 295.0965 15.80872226  1999
STARLINK-37768          
1 69331U 26122C   26167.14376397  .00041494  00000+0  21642-3 0  9996
2 69331  97.2836 196.5407 0000833 101.2610 258.8752 15.80807860  1995
STARLINK-37833          
1 69332U 26122D   26167.14326081  .00094759  00000+0  48876-3 0  9992
2 69332  97.2833 196.5419 0000742  74.6087 285.5263 15.80876037  1992
STARLINK-37818          
1 69333U 26122E   26167.14520558  .00215816  00000+0  10955-2 0  9993
2 69333  97.2831 196.5396 0001148  96.6149 263.5250 15.80902329  1995
STARLINK-37868          
1 69334U 26122F   26167.16668980 -.00059413  00000+0 -31098-3 0  9991
2 69334  97.2841 196.5803 0000877  91.4215  73.0813 15.80856362  3182
STARLINK-37877          
1 69335U 26122G   26167.16668980 -.02534896  00000+0 -17839-1 0  9992
2 69335  97.2839 196.5795 0001769  81.2986  80.5223 15.77671914  3185
STARLINK-37791          
1 69336U 26122H   26167.16668980  .00003681  00000+0  19937-4 0  9996
2 69336  97.2831 196.5856 0000338  79.9077  94.1611 15.80825760  3188
STARLINK-37765          
1 69337U 26122J   26167.16668980  .00024693  00000+0  12934-3 0  9992
2 69337  97.2836 196.5859 0000647  50.0446 126.1738 15.80807337  3232
STARLINK-37788          
1 69338U 26122K   26167.16668980 -.02538499  00000+0 -18221-1 0  9994
2 69338  97.2839 196.5856 0001831  81.1346  94.6642 15.77236338  3194
STARLINK-37743          
1 69339U 26122L   26167.13736536  .00060826  00000+0  31537-3 0  9992
2 69339  97.2836 196.5496 0000581  55.6202 304.5121 15.80866160  1997
STARLINK-37780          
1 69340U 26122M   26167.16668980 -.00061832  00000+0 -32371-3 0  9991
2 69340  97.2837 196.5835 0001166  90.1906  82.1937 15.80859769  3232
STARLINK-37781          
1 69341U 26122N   26167.16668980 -.02517980  00000+0 -17926-1 0  9991
2 69341  97.2837 196.5771 0001927  86.0678  71.1464 15.77384837  3190
STARLINK-37782          
1 69342U 26122P   26167.16668980  .00013821  00000+0  72694-4 0  9999
2 69342  97.2844 196.6045 0001020  59.1011 159.5419 15.80841599  3198
STARLINK-37776          
1 69343U 26122Q   26167.16668980 -.00173061  00000+0 -91701-3 0  9994
2 69343  97.2843 196.6068 0001094  65.4698 158.6747 15.80905474  3192
STARLINK-37786          
1 69344U 26122R   26167.16668980 -.00190651  00000+0 -10124-2 0  9998
2 69344  97.2843 196.6121 0000715  91.7875 145.4850 15.80905882  3193
STARLINK-37785          
1 69345U 26122S   26167.16668980 -.00023161  00000+0 -12037-3 0  9996
2 69345  97.2839 196.6128 0001009  83.2209 156.9705 15.80839264  3196
STARLINK-37773          
1 69346U 26122T   26167.16668980 -.00018309  00000+0 -94977-4 0  9999
2 69346  97.2838 196.6099 0001223  90.3232 143.0497 15.80830966  3236
STARLINK-37744          
1 69347U 26122U   26167.16668980 -.02499947  00000+0 -19612-1 0  9993
2 69347  97.2844 196.6085 0001620  85.1324 146.1511 15.75174418  3197
