OBJECT_NAME,OBJECT_ID,EPOCH,MEAN_MOTION,ECCENTRICITY,INCLINATION,RA_OF_ASC_NODE,ARG_OF_PERICENTER,MEAN_ANOMALY,EPHEMERIS_TYPE,CLASSIFICATION_TYPE,NORAD_CAT_ID,ELEMENT_SET_NO,REV_AT_EPOCH,BSTAR,MEAN_MOTION_DOT,MEAN_MOTION_DDOT
STARLINK-37799,2026-119X,2026-06-16T02:48:42.575616,15.80849711,.0001229,97.2833,192.9349,79.5200,280.6206,0,U,69317,999,262,.39199E-3,.75712E-3,0
STARLINK-37802,2026-119Y,2026-06-16T01:15:12.290112,15.78744219,.0000842,97.2828,192.8705,117.2126,242.9227,0,U,69318,999,386,-.76186E-2,-.1183199E-1,0
STARLINK-37803,2026-119Z,2026-06-16T04:00:01.998720,15.62897974,.0002347,97.2837,192.9437,96.1049,83.0990,0,U,69319,999,383,-.32293E-1,-.2534787E-1,0
GUOWANG TEST OBJECT A,2026-120A,2026-06-07T11:06:12.288672,15.38803685,.00095994,54.9967,71.5399,294.3963,65.6063,0,U,69320,999,119,.24095813E-3,.9002E-4,0
GUOWANG TEST OBJECT B,2026-120B,2026-06-15T21:42:22.445280,15.38683890,.0009972,54.9982,33.5103,326.8872,33.1531,0,U,69321,999,249,.25218E-3,.9403E-4,0
GUOWANG TEST OBJECT C,2026-120C,2026-06-07T21:56:00.773376,15.39284097,.00098504,54.9968,69.4792,309.3319,50.6835,0,U,69322,999,126,.41735581E-3,.16153E-3,0
GUOWANG TEST OBJECT D,2026-120D,2026-06-16T02:17:20.665248,15.39014223,.0011275,54.9977,32.6091,341.3478,18.7136,0,U,69323,999,252,.64627E-4,.2141E-4,0
QIANFAN-163,2026-121A,2026-06-16T02:55:38.144064,13.59757996,.002004,89.0147,300.6229,192.1407,167.9269,0,U,69325,999,201,-.77033E-5,.7E-7,0
QIANFAN-164,2026-121B,2026-06-11T09:53:52.001952,13.60355109,.0019383,89.0157,301.0998,205.3125,154.7084,0,U,69326,999,137,.13228E-3,.112E-5,0
SZ-22 MODULE,2025-272C,2026-06-16T03:38:20.660928,15.60179448,.0006361,41.4806,328.4034,77.9644,282.1907,0,U,69328,999,316,.21907E-3,.18063E-3,0
STARLINK-37733,2026-122A,2026-06-16T03:36:56.637792,15.80878748,.0000324,97.2834,196.5315,75.9673,284.1631,0,U,69329,999,199,.47907E-3,.92869E-3,0
STARLINK-37772,2026-122B,2026-06-16T03:29:23.641728,15.80872226,.0000906,97.2836,196.5388,65.0397,295.0965,0,U,69330,999,199,.49511E-3,.9599E-3,0
STARLINK-37768,2026-122C,2026-06-16T03:27:01.207008,15.80807860,.0000833,97.2836,196.5407,101.2610,258.8752,0,U,69331,999,199,.21642E-3,.41494E-3,0
STARLINK-37833,2026-122D,2026-06-16T03:26:17.733984,15.80876037,.0000742,97.2833,196.5419,74.6087,285.5263,0,U,69332,999,199,.48876E-3,.94759E-3,0
STARLINK-37818,2026-122E,2026-06-16T03:29:05.762112,15.80902329,.0001148,97.2831,196.5396,96.6149,263.5250,0,U,69333,999,199,.10955E-2,.215816E-2,0
STARLINK-37868,2026-122F,2026-06-16T04:00:01.998720,15.80856362,.0000877,97.2841,196.5803,91.4215,73.0813,0,U,69334,999,318,-.31098E-3,-.59413E-3,0
STARLINK-37877,2026-122G,2026-06-16T04:00:01.998720,15.77671914,.0001769,97.2839,196.5795,81.2986,80.5223,0,U,69335,999,318,-.17839E-1,-.2534896E-1,0
STARLINK-37791,2026-122H,2026-06-16T04:00:01.998720,15.80825760,.0000338,97.2831,196.5856,79.9077,94.1611,0,U,69336,999,318,.19937E-4,.3681E-4,0
STARLINK-37765,2026-122J,2026-06-16T04:00:01.998720,15.80807337,.0000647,97.2836,196.5859,50.0446,126.1738,0,U,69337,999,323,.12934E-3,.24693E-3,0
STARLINK-37788,2026-122K,2026-06-16T04:00:01.998720,15.77236338,.0001831,97.2839,196.5856,81.1346,94.6642,0,U,69338,999,319,-.18221E-1,-.2538499E-1,0
STARLINK-37743,2026-122L,2026-06-16T03:17:48.367104,15.80866160,.0000581,97.2836,196.5496,55.6202,304.5121,0,U,69339,999,199,.31537E-3,.60826E-3,0
STARLINK-37780,2026-122M,2026-06-16T04:00:01.998720,15.80859769,.0001166,97.2837,196.5835,90.1906,82.1937,0,U,69340,999,323,-.32371E-3,-.61832E-3,0
STARLINK-37781,2026-122N,2026-06-16T04:00:01.998720,15.77384837,.0001927,97.2837,196.5771,86.0678,71.1464,0,U,69341,999,319,-.17926E-1,-.251798E-1,0
STARLINK-37782,2026-122P,2026-06-16T04:00:01.998720,15.80841599,.000102,97.2844,196.6045,59.1011,159.5419,0,U,69342,999,319,.72694E-4,.13821E-3,0
STARLINK-37776,2026-122Q,2026-06-16T04:00:01.998720,15.80905474,.0001094,97.2843,196.6068,65.4698,158.6747,0,U,69343,999,319,-.91701E-3,-.173061E-2,0
STARLINK-37786,2026-122R,2026-06-16T04:00:01.998720,15.80905882,.0000715,97.2843,196.6121,91.7875,145.4850,0,U,69344,999,319,-.10124E-2,-.190651E-2,0
STARLINK-37785,2026-122S,2026-06-16T04:00:01.998720,15.80839264,.0001009,97.2839,196.6128,83.2209,156.9705,0,U,69345,999,319,-.12037E-3,-.23161E-3,0
STARLINK-37773,2026-122T,2026-06-16T04:00:01.998720,15.80830966,.0001223,97.2838,196.6099,90.3232,143.0497,0,U,69346,999,323,-.94977E-4,-.18309E-3,0
STARLINK-37744,2026-122U,2026-06-16T04:00:01.998720,15.75174418,.000162,97.2844,196.6085,85.1324,146.1511,0,U,69347,999,319,-.19612E-1,-.2499947E-1,0
